NORAD_CAT_ID,OBJECT_NAME,OBJECT_TYPE,EPOCH,MEAN_MOTION,ECCENTRICITY,INCLINATION,RA_OF_ASC_NODE,ARG_OF_PERICENTER,MEAN_ANOMALY,BSTAR,MEAN_MOTION_DOT,MEAN_MOTION_DDOT,TLE_LINE0,TLE_LINE1,TLE_LINE2,SEMIMAJOR_AXIS,PERIOD,APOGEE,PERIGEE,DECAYED
55755.0,STARLINK-5619,PAYLOAD,2023-05-28 03:10:34,14.98331715,0.0003338,69.9993,287.3873,267.3932,92.6845,2.9267e-05,2.56e-06,0.0,0 STARLINK-5619,1 55755U 23028Q   23148.13234603  .00000256  00000-0  29267-4 0  9995,2 55755  69.9993 287.3873 0003338 267.3932  92.6845 14.98331715 13775,6950.188,96.107,574.373,569.733,0.0
55755.0,STARLINK-5619,PAYLOAD,2023-05-28 17:35:46,14.9833786,0.0003373,69.9992,285.8726,267.7871,92.2901,5.9139e-05,6.13e-06,0.0,0 STARLINK-5619,1 55755U 23028Q   23148.73317972  .00000613  00000-0  59139-4 0  9990,2 55755  69.9992 285.8726 0003373 267.7871  92.2901 14.98337860 13865,6950.169,96.106,574.378,569.689,0.0
55755.0,STARLINK-5619,PAYLOAD,2023-05-28 19:11:54,14.98338447,0.0003369,69.9992,285.7043,267.7854,92.2919,6.5051e-05,6.83e-06,0.0,0 STARLINK-5619,1 55755U 23028Q   23148.79993890  .00000683  00000-0  65051-4 0  9992,2 55755  69.9992 285.7043 0003369 267.7854  92.2919 14.98338447 13874,6950.167,96.106,574.373,569.69,0.0
55755.0,STARLINK-5619,PAYLOAD,2023-05-29 09:37:07,14.98327807,0.0003346,69.9994,284.1894,267.7657,92.3119,1.0537e-05,3.3e-07,0.0,0 STARLINK-5619,1 55755U 23028Q   23149.40078595  .00000033  00000-0  10537-4 0  9995,2 55755  69.9994 284.1894 0003346 267.7657  92.3119 14.98327807 13960,6950.2,96.107,574.39,569.739,0.0
55755.0,STARLINK-5619,PAYLOAD,2023-05-29 14:25:32,14.98327542,0.0003255,69.9999,283.6855,266.635,93.4437,1.8379e-05,1.26e-06,0.0,0 STARLINK-5619,1 55755U 23028Q   23149.60106594  .00000126  00000-0  18379-4 0  9993,2 55755  69.9999 283.6855 0003255 266.6350  93.4437 14.98327542 13997,6950.2,96.107,574.328,569.803,0.0
55755.0,STARLINK-5619,PAYLOAD,2023-05-29 19:13:56,14.98331778,0.0003135,69.9998,283.1802,265.5879,94.4922,-3.0663e-05,-4.59e-06,0.0,0 STARLINK-5619,1 55755U 23028Q   23149.80134459 -.00000459  00000-0 -30663-4 0  9997,2 55755  69.9998 283.1802 0003135 265.5879  94.4922 14.98331778 14025,6950.187,96.107,574.231,569.874,0.0
55755.0,STARLINK-5619,PAYLOAD,2023-05-30 11:15:16,14.98332785,0.0003293,69.9995,281.4962,267.3107,92.7675,-4.52e-05,-6.32e-06,0.0,0 STARLINK-5619,1 55755U 23028Q   23150.46894366 -.00000632  00000-0 -45200-4 0  9997,2 55755  69.9995 281.4962 0003293 267.3107  92.7675 14.98332785 14125,6950.184,96.107,574.338,569.761,0.0
55755.0,STARLINK-5619,PAYLOAD,2023-05-30 16:03:40,14.98332531,0.0003292,69.9996,280.9913,266.7535,93.3248,-1.7182e-05,-2.98e-06,0.0,0 STARLINK-5619,1 55755U 23028Q   23150.66922268 -.00000298  00000-0 -17182-4 0  9998,2 55755  69.9996 280.9913 0003292 266.7535  93.3248 14.98332531 14158,6950.185,96.107,574.338,569.762,0.0
55755.0,STARLINK-5619,PAYLOAD,2023-05-31 12:53:25,14.98330609,0.0003344,69.9996,278.8031,265.9995,94.0782,1.9306e-05,1.37e-06,0.0,0 STARLINK-5619,1 55755U 23028Q   23151.53710144  .00000137  00000-0  19306-4 0  9993,2 55755  69.9996 278.8031 0003344 265.9995  94.0782 14.98330609 14283,6950.191,96.107,574.38,569.732,0.0
55755.0,STARLINK-5619,PAYLOAD,2023-05-31 17:41:49,14.98333236,0.0003317,69.9996,278.2982,265.8754,94.2026,4.7344e-05,4.72e-06,0.0,0 STARLINK-5619,1 55755U 23028Q   23151.73737870  .00000472  00000-0  47344-4 0  9995,2 55755  69.9996 278.2982 0003317 265.8754  94.2026 14.98333236 14310,6950.183,96.107,574.353,569.743,0.0
55755.0,STARLINK-5619,PAYLOAD,2023-06-01 11:19:18,14.98328445,0.0003235,69.9998,276.4471,265.9479,94.131,-2.9323e-05,-4.43e-06,0.0,0 STARLINK-5619,1 55755U 23028Q   23152.47174379 -.00000443  00000-0 -29323-4 0  9993,2 55755  69.9998 276.4471 0003235 265.9479  94.1310 14.98328445 14422,6950.198,96.107,574.311,569.814,0.0
55755.0,STARLINK-5619,PAYLOAD,2023-06-02 12:57:27,14.98326748,0.0003331,69.9993,273.7528,268.1524,91.9254,-5.8032e-05,-7.85e-06,0.0,0 STARLINK-5619,1 55755U 23028Q   23153.53990691 -.00000785  00000-0 -58032-4 0  9992,2 55755  69.9993 273.7528 0003331 268.1524  91.9254 14.98326748 14586,6950.203,96.107,574.383,569.753,0.0
55755.0,STARLINK-5619,PAYLOAD,2023-06-02 17:45:52,14.98328471,0.0003315,69.9995,273.2481,268.6501,91.4279,-3.3938e-05,-4.98e-06,0.0,0 STARLINK-5619,1 55755U 23028Q   23153.74018551 -.00000498  00000-0 -33938-4 0  9990,2 55755  69.9995 273.2481 0003315 268.6501  91.4279 14.98328471 14614,6950.198,96.107,574.367,569.759,0.0
55755.0,STARLINK-5619,PAYLOAD,2023-06-03 12:59:28,14.98327209,0.0003363,69.9995,271.2283,268.5828,91.4946,-4.1343e-06,-1.42e-06,0.0,0 STARLINK-5619,1 55755U 23028Q   23154.54130676 -.00000142  00000-0 -41343-5 0  9998,2 55755  69.9995 271.2283 0003363 268.5828  91.4946 14.98327209 14738,6950.202,96.107,574.404,569.729,0.0
55755.0,STARLINK-5619,PAYLOAD,2023-06-03 17:47:52,14.98330354,0.000335,69.9995,270.7234,268.748,91.3295,3.1654e-05,2.85e-06,0.0,0 STARLINK-5619,1 55755U 23028Q   23154.74158397  .00000285  00000-0  31654-4 0  9999,2 55755  69.9995 270.7234 0003350 268.7480  91.3295 14.98330354 14764,6950.192,96.107,574.385,569.728,0.0
55755.0,STARLINK-5619,PAYLOAD,2023-06-04 14:37:37,14.98329019,0.000329,69.9998,268.5365,263.4325,96.6459,4.9947e-05,5.03e-06,0.0,0 STARLINK-5619,1 55755U 23028Q   23155.60946473  .00000503  00000-0  49947-4 0  9992,2 55755  69.9998 268.5365 0003290 263.4325  96.6459 14.98329019 14890,6950.196,96.107,574.348,569.774,0.0
55755.0,STARLINK-5619,PAYLOAD,2023-06-04 17:49:53,14.98330082,0.0003291,69.9998,268.1993,263.8091,96.2693,6.0507e-05,6.29e-06,0.0,0 STARLINK-5619,1 55755U 23028Q   23155.74298377  .00000629  00000-0  60507-4 0  9994,2 55755  69.9998 268.1993 0003291 263.8091  96.2693 14.98330082 14919,6950.193,96.107,574.345,569.77,0.0
55755.0,STARLINK-5619,PAYLOAD,2023-06-05 13:03:30,14.9833582,0.0003446,69.9994,266.1783,267.8483,92.2281,5.9984e-05,6.23e-06,0.0,0 STARLINK-5619,1 55755U 23028Q   23156.54409856  .00000623  00000-0  59984-4 0  9990,2 55755  69.9994 266.1783 0003446 267.8483  92.2281 14.98335820 15039,6950.175,96.107,574.435,569.645,0.0
55755.0,STARLINK-5619,PAYLOAD,2023-06-05 17:51:53,14.98339045,0.0003391,69.9995,265.6732,267.425,92.6521,9.5049e-05,1.042e-05,0.0,0 STARLINK-5619,1 55755U 23028Q   23156.74437452  .00001042  00000-0  95049-4 0  9993,2 55755  69.9995 265.6732 0003391 267.4250  92.6521 14.98339045 15062,6950.165,96.106,574.387,569.673,0.0
55755.0,STARLINK-5619,PAYLOAD,2023-06-06 08:17:07,14.98326004,0.0003234,69.9999,264.1583,270.4622,89.6167,-5.4587e-05,-7.44e-06,0.0,0 STARLINK-5619,1 55755U 23028Q   23157.34522593 -.00000744  00000-0 -54587-4 0  9993,2 55755  69.9999 264.1583 0003234 270.4622  89.6167 14.98326004 15150,6950.205,96.107,574.318,569.823,0.0
55755.0,STARLINK-5619,PAYLOAD,2023-06-06 11:29:23,14.98325096,0.0003255,69.9998,263.8217,270.3169,89.7617,-6.5933e-05,-8.8e-06,0.0,0 STARLINK-5619,1 55755U 23028Q   23157.47874702 -.00000880  00000-0 -65933-4 0  9997,2 55755  69.9998 263.8217 0003255 270.3169  89.7617 14.98325096 15170,6950.208,96.107,574.335,569.811,0.0
55755.0,STARLINK-5619,PAYLOAD,2023-06-06 16:17:47,14.98327569,0.0003237,69.9999,263.3167,270.0949,89.984,-3.3769e-05,-4.96e-06,0.0,0 STARLINK-5619,1 55755U 23028Q   23157.67902482 -.00000496  00000-0 -33769-4 0  9991,2 55755  69.9999 263.3167 0003237 270.0949  89.9840 14.98327569 15204,6950.2,96.107,574.315,569.816,0.0
55755.0,STARLINK-5619,PAYLOAD,2023-06-07 06:43:00,14.98332013,0.0003315,69.9999,261.803,269.0693,91.0086,-4.1134e-05,-5.84e-06,0.0,0 STARLINK-5619,1 55755U 23028Q   23158.27986179 -.00000584  00000-0 -41134-4 0  9996,2 55755  69.9999 261.8030 0003315 269.0693  91.0086 14.98332013 15292,6950.187,96.107,574.356,569.748,0.0
55755.0,STARLINK-5619,PAYLOAD,2023-06-07 08:19:08,14.98331977,0.0003328,69.9999,261.6346,269.0298,91.0479,-3.9937e-05,-5.7e-06,0.0,0 STARLINK-5619,1 55755U 23028Q   23158.34662167 -.00000570  00000-0 -39937-4 0  9995,2 55755  69.9999 261.6346 0003328 269.0298  91.0479 14.98331977 15301,6950.187,96.107,574.365,569.739,0.0
55755.0,STARLINK-5619,PAYLOAD,2023-06-08 08:21:09,14.98325022,0.0003504,69.9991,259.1077,269.9152,90.1606,8.0637e-05,8.69e-06,0.0,0 STARLINK-5619,1 55755U 23028Q   23159.34802136  .00000869  00000-0  80637-4 0  9990,2 55755  69.9991 259.1077 0003504 269.9152  90.1606 14.98325022 15452,6950.208,96.107,574.509,569.638,0.0
55755.0,STARLINK-5619,PAYLOAD,2023-06-08 11:33:25,14.98326199,0.0003444,69.9994,258.7712,270.2359,89.8405,7.472e-05,7.99e-06,0.0,0 STARLINK-5619,1 55755U 23028Q   23159.48154124  .00000799  00000-0  74720-4 0  9990,2 55755  69.9994 258.7712 0003444 270.2359  89.8405 14.98326199 15473,6950.205,96.107,574.463,569.676,0.0
55755.0,STARLINK-5619,PAYLOAD,2023-06-08 13:09:33,14.98326608,0.0003332,69.9995,258.6028,267.0303,93.0475,6.6465e-05,7e-06,0.0,0 STARLINK-5619,1 55755U 23028Q   23159.54830128  .00000700  00000-0  66465-4 0  9991,2 55755  69.9995 258.6028 0003332 267.0303  93.0475 14.98326608 15482,6950.203,96.107,574.384,569.753,0.0
55755.0,STARLINK-5619,PAYLOAD,2023-06-09 13:11:33,14.98333764,0.000352,69.9995,256.0798,270.0571,90.0185,2.0983e-05,1.57e-06,0.0,0 STARLINK-5619,1 55755U 23028Q   23160.54969741  .00000157  00000-0  20983-4 0  9998,2 55755  69.9995 256.0798 0003520 270.0571  90.0185 14.98333764 15631,6950.181,96.107,574.493,569.6,0.0
55755.0,STARLINK-5619,PAYLOAD,2023-06-09 16:23:50,14.98332343,0.0003367,69.9994,255.7419,267.9826,92.0948,4.1248e-05,3.99e-06,0.0,0 STARLINK-5619,1 55755U 23028Q   23160.68321762  .00000399  00000-0  41248-4 0  9993,2 55755  69.9994 255.7419 0003367 267.9826  92.0948 14.98332343 15656,6950.186,96.107,574.391,569.711,0.0
55755.0,STARLINK-5619,PAYLOAD,2023-06-10 06:49:02,14.98325781,0.0003494,69.9993,254.2276,270.1614,89.9145,3.6884e-05,3.47e-06,0.0,0 STARLINK-5619,1 55755U 23028Q   23161.28406103  .00000347  00000-0  36884-4 0  9996,2 55755  69.9993 254.2276 0003494 270.1614  89.9145 14.98325781 15744,6950.206,96.107,574.499,569.643,0.0
